[{"OBJECT_NAME":"KINEIS-3E","OBJECT_ID":"2024-172C","EPOCH":"2026-03-09T18:10:24.014496","MEAN_MOTION":14.72309398,"ECCENTRICITY":0.0001612,"INCLINATION":98.0288,"RA_OF_ASC_NODE":159.764,"ARG_OF_PERICENTER":104.7696,"MEAN_ANOMALY":255.369,"EPHEMERIS_TYPE":0,"CLASSIFICATION_TYPE":"U","NORAD_CAT_ID":61222,"ELEMENT_SET_NO":999,"REV_AT_EPOCH":7872,"BSTAR":0.00046314644,"MEAN_MOTION_DOT":2.879e-5,"MEAN_MOTION_DDOT":0},{"OBJECT_NAME":"COSMOS 1275 DEB","OBJECT_ID":"1981-053HJ","EPOCH":"2026-03-09T06:45:04.046112","MEAN_MOTION":14.70355977,"ECCENTRICITY":0.00101535,"INCLINATION":82.9208,"RA_OF_ASC_NODE":350.4031,"ARG_OF_PERICENTER":24.8011,"MEAN_ANOMALY":101.3958,"EPHEMERIS_TYPE":0,"CLASSIFICATION_TYPE":"U","NORAD_CAT_ID":13814,"ELEMENT_SET_NO":999,"REV_AT_EPOCH":22456,"BSTAR":0.0031571154,"MEAN_MOTION_DOT":0.00019153,"MEAN_MOTION_DDOT":0}]
